SAUDISAT 1C             
1 27607U 02058C   22337.20292540  .00000773  00000+0  12540-3 0  9999
2 27607  64.5529 145.3928 0081018 262.4117  96.7778 14.76443335 73495
SAUDISAT 2              
1 28371U 04025F   22337.43611861  .00000031  00000+0  18331-4 0  9992
2 28371  98.4018 294.7187 0024920 307.4398  52.4514 14.54660825977850
SAUDISAT 3              
1 31118U 07012B   22337.39212329  .00000233  00000+0  47568-4 0  9993
2 31118  97.9904 280.5188 0015649  22.9002 337.2898 14.69426850837964
PISAT                   
1 41784U 16059B   22336.82030960  .00000536  00000+0  11014-3 0  9992
2 41784  97.8959  13.4565 0031529 359.6408   0.4767 14.64125181330320
FLYING LAPTOP           
1 42831U 17042G   22337.13992093  .00001869  00000+0  18844-3 0  9996
2 42831  97.4021 181.6485 0014269 157.2207 202.9656 14.92164281293240
SALSAT                  
1 46495U 20068K   22336.72070167  .00003025  00000+0  21473-3 0  9999
2 46495  97.7479 278.2968 0017820  68.7917 291.5211 15.05387615119497
